[{"OBJECT_NAME":"STARLINK-4275","OBJECT_ID":"2022-076Y","EPOCH":"2026-03-09T18:55:47.599968","MEAN_MOTION":15.08840177,"ECCENTRICITY":0.00013987,"INCLINATION":53.2171,"RA_OF_ASC_NODE":93.6662,"ARG_OF_PERICENTER":82.4868,"MEAN_ANOMALY":277.6283,"EPHEMERIS_TYPE":0,"CLASSIFICATION_TYPE":"U","NORAD_CAT_ID":53008,"ELEMENT_SET_NO":999,"REV_AT_EPOCH":20286,"BSTAR":3.3402469e-5,"MEAN_MOTION_DOT":2.44e-6,"MEAN_MOTION_DDOT":0},{"OBJECT_NAME":"FENGYUN 1C DEB","OBJECT_ID":"1999-025DWK","EPOCH":"2026-03-04T22:59:43.178496","MEAN_MOTION":14.75372926,"ECCENTRICITY":0.0170684,"INCLINATION":99.0756,"RA_OF_ASC_NODE":108.4567,"ARG_OF_PERICENTER":229.4091,"MEAN_ANOMALY":129.2157,"EPHEMERIS_TYPE":0,"CLASSIFICATION_TYPE":"U","NORAD_CAT_ID":36258,"ELEMENT_SET_NO":999,"REV_AT_EPOCH":92034,"BSTAR":0.000371885,"MEAN_MOTION_DOT":3.121e-5,"MEAN_MOTION_DDOT":0}]
